HAWK-11C                
1 62381U 24247E   26068.51221537  .00009223  00000+0  33290-3 0  9992
2 62381  45.0045 114.8762 0005900 329.7040  30.3502 15.28848020 67743
STARLINK-33676          
1 63403U 25065E   26068.50647396  .00021686  00000+0  79494-3 0  9994
2 63403  43.0032 107.9671 0001888 272.2095  87.8541 15.27592571 52816
